NORAD_CAT_ID,OBJECT_NAME,OBJECT_TYPE,EPOCH,MEAN_MOTION,ECCENTRICITY,INCLINATION,RA_OF_ASC_NODE,ARG_OF_PERICENTER,MEAN_ANOMALY,BSTAR,MEAN_MOTION_DOT,MEAN_MOTION_DDOT,TLE_LINE0,TLE_LINE1,TLE_LINE2,SEMIMAJOR_AXIS,PERIOD,APOGEE,PERIGEE,DECAYED
53715.0,STARLINK-4686,PAYLOAD,2022-11-08 00:00:02,15.24561248,0.0001681,53.2164,320.6021,41.1293,287.5554,-0.051583,-0.01184778,0.0,0 STARLINK-4686,1 53715U 22107R   22312.00002315 -.01184778  00000-0 -51583-1 0  9995,2 53715  53.2164 320.6021 0001681  41.1293 287.5554 15.24561248 10111,6870.24,94.453,493.26,490.95,0.0
53715.0,STARLINK-4686,PAYLOAD,2022-11-08 14:00:01,15.23151345,0.0001732,53.2159,317.9241,41.0401,249.357,-0.054847,-0.01205817,0.0,0 STARLINK-4686,1 53715U 22107R   22312.58334491 -.01205817  00000-0 -54847-1 0  9995,2 53715  53.2159 317.9241 0001732  41.0401 249.3570 15.23151345  1302,6874.479,94.541,497.535,495.154,0.0
53715.0,STARLINK-4686,PAYLOAD,2022-11-08 22:00:00,15.22204936,0.0001801,53.2164,316.3941,35.8345,282.8753,-0.047221,-0.0101056,0.0,0 STARLINK-4686,1 53715U 22107R   22312.91667824 -.01010560  00000-0 -47221-1 0  9998,2 53715  53.2164 316.3941 0001801  35.8345 282.8753 15.22204936  1302,6877.328,94.6,500.432,497.955,0.0
53715.0,STARLINK-4686,PAYLOAD,2022-11-09 06:00:00,15.21453062,0.0001467,53.2164,314.8681,59.8918,286.0540000000001,-0.052611,-0.01107493,0.0,0 STARLINK-4686,1 53715U 22107R   22313.25001157 -.01107493  00000-0 -52611-1 0  9998,2 53715  53.2164 314.8681 0001467  59.8918 286.0540 15.21453062 10301,6879.594,94.646,502.468,500.45,0.0
53715.0,STARLINK-4686,PAYLOAD,2022-11-09 14:00:01,15.20709958,0.0001611,53.2159,313.3436,40.0563,332.1437,-0.058857,-0.01203801,0.0,0 STARLINK-4686,1 53715U 22107R   22313.58334491 -.01203801  00000-0 -58857-1 0  9992,2 53715  53.2159 313.3436 0001611  40.0563 332.1437 15.20709958  1301,6881.835,94.693,504.809,502.591,0.0
53715.0,STARLINK-4686,PAYLOAD,2022-11-09 22:00:01,15.19857606,0.0001675,53.2166,311.8193,38.2233,359.3733,-0.057573,-0.01152694,0.0,0 STARLINK-4686,1 53715U 22107R   22313.91668981 -.01152694  00000-0 -57573-1 0  9990,2 53715  53.2166 311.8193 0001675  38.2233 359.3733 15.19857606 10419,6884.408,94.746,507.426,505.119,0.0
53715.0,STARLINK-4686,PAYLOAD,2022-11-10 14:00:01,15.18269043,0.0001703,53.2158,308.7803,42.3055,42.8976,-0.063226,-0.01204124,0.0,0 STARLINK-4686,1 53715U 22107R   22314.58334491 -.01204124  00000-0 -63226-1 0  9998,2 53715  53.2158 308.7803 0001703  42.3055  42.8976 15.18269043  1305,6889.209,94.845,512.247,509.901,0.0
53715.0,STARLINK-4686,PAYLOAD,2022-11-10 16:00:00,15.18031774,0.0001675999999999,53.2165,308.4005,48.1383,132.7694,-0.061123,-0.01159801,0.0,0 STARLINK-4686,1 53715U 22107R   22314.66667824 -.01159801  00000-0 -61123-1 0  9991,2 53715  53.2165 308.4005 0001676  48.1383 132.7694 15.18031774 10529,6889.927,94.86,512.946,510.637,0.0
53715.0,STARLINK-4686,PAYLOAD,2022-11-10 22:00:00,15.17435113,0.0001874,53.2161,307.2616,38.6694,68.9233,-0.063191,-0.01177094,0.0,0 STARLINK-4686,1 53715U 22107R   22314.91667824 -.01177094  00000-0 -63191-1 0  9990,2 53715  53.2161 307.2616 0001874  38.6694  68.9233 15.17435113  1308,6891.733,94.897,514.889,512.306,0.0
53715.0,STARLINK-4686,PAYLOAD,2022-11-11 14:00:01,15.15816282,0.0001846,53.2159,304.2341,42.115,107.2969,-0.066946,-0.01189274,0.0,0 STARLINK-4686,1 53715U 22107R   22315.58334491 -.01189274  00000-0 -66946-1 0  9999,2 53715  53.2159 304.2341 0001846  42.1150 107.2969 15.15816282 10663,6896.639,94.998,519.7769999999998,517.23,0.0
53715.0,STARLINK-4686,PAYLOAD,2022-11-11 22:00:00,15.15000545,0.0001891,53.216,302.7211,42.9388,125.919,-0.068295,-0.01185629,0.0,0 STARLINK-4686,1 53715U 22107R   22315.91667824 -.01185629  00000-0 -68295-1 0  9994,2 53715  53.2160 302.7211 0001891  42.9388 125.9190 15.15000545  1306,6899.114000000001,95.049,522.284,519.674,0.0
53715.0,STARLINK-4686,PAYLOAD,2022-11-12 06:00:00,15.14167248,0.0001605,53.2164,301.2131,57.3515,129.983,-0.068283,-0.01159797,0.0,0 STARLINK-4686,1 53715U 22107R   22316.25001157 -.01159797  00000-0 -68283-1 0  9997,2 53715  53.2164 301.2131 0001605  57.3515 129.9830 15.14167248 10768,6901.645,95.102,524.618,522.4019999999998,0.0
53715.0,STARLINK-4686,PAYLOAD,2022-11-12 14:00:01,15.13378149,0.0001759,53.2158,299.7048,47.3691,157.4428,-0.07201,-0.01193209,0.0,0 STARLINK-4686,1 53715U 22107R   22316.58334491 -.01193209  00000-0 -72010-1 0  9992,2 53715  53.2158 299.7048 0001759  47.3691 157.4428 15.13378149  1305,6904.044,95.151,527.123,524.694,0.0
53715.0,STARLINK-4686,PAYLOAD,2022-11-12 22:00:00,15.1255552,0.0001867,53.2159,298.1976,42.8305,178.4969,-0.072792,-0.01179722,0.0,0 STARLINK-4686,1 53715U 22107R   22316.91667824 -.01179722  00000-0 -72792-1 0  9999,2 53715  53.2159 298.1976 0001867  42.8305 178.4969 15.12555520  1303,6906.547,95.203,529.701,527.122,0.0
53715.0,STARLINK-4686,PAYLOAD,2022-11-13 06:00:02,15.11730436,0.0001606,53.2165,296.6956,53.9539,182.9759,-0.073554,-0.01165928,0.0,0 STARLINK-4686,1 53715U 22107R   22317.25002315 -.01165928  00000-0 -73554-1 0  9995,2 53715  53.2165 296.6956 0001606  53.9539 182.9759 15.11730436 10918,6909.06,95.255,532.034,529.815,0.0
53715.0,STARLINK-4686,PAYLOAD,2022-11-13 14:00:01,15.10926198,0.0001668,53.2159,295.1929,48.2519,203.1662,-0.076138,-0.01178971,0.0,0 STARLINK-4686,1 53715U 22107R   22317.58334491 -.01178971  00000-0 -76138-1 0  9997,2 53715  53.2159 295.1929 0001668  48.2519 203.1662 15.10926198  1301,6911.511,95.306,534.529,532.2230000000002,0.0
53715.0,STARLINK-4686,PAYLOAD,2022-11-13 22:00:00,15.1010464,0.0001831,53.2159,293.6914,43.1876,221.8078,-0.076186,-0.01155134,0.0,0 STARLINK-4686,1 53715U 22107R   22317.91667824 -.01155134  00000-0 -76186-1 0  9992,2 53715  53.2159 293.6914 0001831  43.1876 221.8078 15.10104640  1308,6914.018,95.358,537.149,534.617,0.0
53715.0,STARLINK-4686,PAYLOAD,2022-11-14 14:00:01,15.08838304,0.0002005,53.2173,290.6984,35.2465,254.166,-0.00021453,-3.701e-05,0.0,0 STARLINK-4686,1 53715U 22107R   22318.58334491 -.00003701  00000-0 -21453-3 0  9997,2 53715  53.2173 290.6984 0002005  35.2465 254.1660 15.08838304 11112,6917.886,95.438,541.138,538.364,0.0
53715.0,STARLINK-4686,PAYLOAD,2022-11-14 22:00:00,15.08835755,0.000196,53.2175,289.2009,37.7293,263.2765,0.00016178,2.287e-05,0.0,0 STARLINK-4686,1 53715U 22107R   22318.91667824  .00002287  00000-0  16178-3 0  9997,2 53715  53.2175 289.2009 0001960  37.7293 263.2765 15.08835755  1305,6917.893,95.438,541.114,538.4019999999998,0.0
53715.0,STARLINK-4686,PAYLOAD,2022-11-15 00:00:02,15.08864144,0.0001945,53.2145,288.8208,51.5191,342.2859,7.1603e-05,8.52e-06,0.0,0 STARLINK-4686,1 53715U 22107R   22319.00002315  .00000852  00000-0  71603-4 0  9997,2 53715  53.2145 288.8208 0001945  51.5191 342.2859 15.08864144 11185,6917.807,95.436,541.0169999999998,538.326,0.0
53715.0,STARLINK-4686,PAYLOAD,2022-11-15 08:00:01,15.08998013,0.0002363,53.2166,287.3307,52.7252,352.6942,-0.0099404,-0.00155772,0.0,0 STARLINK-4686,1 53715U 22107R   22319.33335648 -.00155772  00000-0 -99404-2 0  9992,2 53715  53.2166 287.3307 0002363  52.7252 352.6942 15.08998013 11235,6917.397,95.428,540.8969999999998,537.628,0.0
53715.0,STARLINK-4686,PAYLOAD,2022-11-15 14:00:01,15.08847482,0.0001891,53.2151,286.2025,44.0102,280.0592,-0.0034436,-0.00054689,0.0,0 STARLINK-4686,1 53715U 22107R   22319.58334491 -.00054689  00000-0 -34436-2 0  9993,2 53715  53.2151 286.2025 0001891  44.0102 280.0592 15.08847482  1302,6917.858,95.437,541.031,538.414,0.0
53715.0,STARLINK-4686,PAYLOAD,2022-11-15 16:00:00,15.08817129,0.0001811,53.2153,285.8279,45.9496,11.0251,5.8399e-05,6.41e-06,0.0,0 STARLINK-4686,1 53715U 22107R   22319.66667824  .00000641  00000-0  58399-4 0  9994,2 53715  53.2153 285.8279 0001811  45.9496  11.0251 15.08817129 11285,6917.95,95.439,541.068,538.562,0.0
53715.0,STARLINK-4686,PAYLOAD,2022-11-15 22:00:00,15.08818537,0.0001797,53.2155,284.7053,49.3672,286.2809,0.0020705,0.00032799,0.0,0 STARLINK-4686,1 53715U 22107R   22319.91667824  .00032799  00000-0  20705-2 0  9999,2 53715  53.2155 284.7053 0001797  49.3672 286.2809 15.08818537  1303,6917.946,95.439,541.054,538.568,0.0
53715.0,STARLINK-4686,PAYLOAD,2022-11-16 14:00:01,15.08754938,0.0002018,53.2161,281.7165,49.2751,309.6266,0.018846,0.00312483,0.0,0 STARLINK-4686,1 53715U 22107R   22320.58335648  .00312483  00000-0  18846-1 0  9993,2 53715  53.2161 281.7165 0002018  49.2751 309.6266 15.08754938 11420,6918.14,95.443,541.401,538.609,0.0
53715.0,STARLINK-4686,PAYLOAD,2022-11-16 20:00:01,15.09078208,0.0001876,53.2166,280.5948,54.868,222.6224,-0.018512,-0.00285298,0.0,0 STARLINK-4686,1 53715U 22107R   22320.83334491 -.00285298  00000-0 -18512-1 0  9991,2 53715  53.2166 280.5948 0001876  54.8680 222.6224 15.09078208 11456,6917.151999999999,95.422,540.315,537.72,0.0
53715.0,STARLINK-4686,PAYLOAD,2022-11-16 22:00:08,15.09066786,0.0001983,53.2169,280.2211,55.4663,315.409,-0.021604,-0.00330715,0.0,0 STARLINK-4686,1 53715U 22107R   22320.91675926 -.00330715  00000-0 -21604-1 0  9992,2 53715  53.2169 280.2211 0001983  55.4663 315.4090 15.09066786  1309,6917.187,95.423,540.424,537.681,0.0
53715.0,STARLINK-4686,PAYLOAD,2022-11-17 14:00:01,15.08875748,0.0001851,53.2151,277.2237,46.8488,346.8075,-0.0027288,-0.00043498,0.0,0 STARLINK-4686,1 53715U 22107R   22321.58334491 -.00043498  00000-0 -27288-2 0  9999,2 53715  53.2151 277.2237 0001851  46.8488 346.8075 15.08875748 11573,6917.771,95.435,540.9169999999998,538.356,0.0
53715.0,STARLINK-4686,PAYLOAD,2022-11-17 22:00:00,15.08821519,0.0001783,53.2164,275.7297,49.7981,355.4779,0.0062262,0.00100163,0.0,0 STARLINK-4686,1 53715U 22107R   22321.91667824  .00100163  00000-0  62262-2 0  9997,2 53715  53.2164 275.7297 0001783  49.7981 355.4779 15.08821519  1304,6917.937,95.439,541.035,538.568,0.0
